[{"OBJECT_NAME":"STARLINK-32177","OBJECT_ID":"2024-144S","EPOCH":"2026-03-09T15:09:29.280960","MEAN_MOTION":15.30187894,"ECCENTRICITY":0.0001197,"INCLINATION":53.1602,"RA_OF_ASC_NODE":217.1586,"ARG_OF_PERICENTER":60.2695,"MEAN_ANOMALY":299.8425,"EPHEMERIS_TYPE":0,"CLASSIFICATION_TYPE":"U","NORAD_CAT_ID":60441,"ELEMENT_SET_NO":999,"REV_AT_EPOCH":8930,"BSTAR":-2.4408e-5,"MEAN_MOTION_DOT":-1.082e-5,"MEAN_MOTION_DDOT":0},{"OBJECT_NAME":"TEVEL2-5","OBJECT_ID":"2025-052E","EPOCH":"2026-03-09T23:11:54.246048","MEAN_MOTION":15.30817434,"ECCENTRICITY":0.00047002,"INCLINATION":97.4013,"RA_OF_ASC_NODE":325.3677,"ARG_OF_PERICENTER":95.3936,"MEAN_ANOMALY":264.7842,"EPHEMERIS_TYPE":0,"CLASSIFICATION_TYPE":"U","NORAD_CAT_ID":63214,"ELEMENT_SET_NO":999,"REV_AT_EPOCH":5491,"BSTAR":0.00071764727,"MEAN_MOTION_DOT":0.00021339,"MEAN_MOTION_DDOT":0}]
