STARLINK-32177          
1 60441U 24144S   26068.63158890 -.00001082  00000+0 -24408-4 0  9996
2 60441  53.1602 217.1586 0001197  60.2695 299.8425 15.30187894 89305
TEVEL2-5                
1 63214U 25052E   26068.96660006  .00021339  00000+0  71765-3 0  9991
2 63214  97.4013 325.3677 0004700  95.3936 264.7842 15.30817434 54919
